{"type": "FeatureCollection", "features": [ {"type": "Feature", "properties": {"norad_id": 66658, "name": "2025-274J", "group": "last-30-days", "lat": -28.883199682931938, "lon": 86.85496180578478, "alt_km": 594.4905883736028, "timestamp": "2025-12-09T21:34:10.196979+00:00", "meta": {"OBJECT_NAME": "2025-274J", "OBJECT_ID": "2025-274J", "EPOCH": "2025-12-09T14:11:55.777920", "MEAN_MOTION": 14.92594222, "ECCENTRICITY": 0.001152, "INCLINATION": 97.7384, "RA_OF_ASC_NODE": 270.8551, "ARG_OF_PERICENTER": 291.0278, "MEAN_ANOMALY": 68.9708, "EPHEMERIS_TYPE": 0, "CLASSIFICATION_TYPE": "U", "NORAD_CAT_ID": 66658, "ELEMENT_SET_NO": 999, "REV_AT_EPOCH": 193, "BSTAR": 0.00044076437, "MEAN_MOTION_DOT": 4.485e-05, "MEAN_MOTION_DDOT": 0}, "tle": {"line1": "1 66658U 25274J   25343.59161780  .00004485  00000+0  44076-3 0  9999", "line2": "2 66658  97.7384 270.8551 0011520 291.0278  68.9708 14.92594222  1938"}}, "geometry": {"type": "Point", "coordinates": [86.85496180578478, -28.883199682931938]}}, {"type": "Feature", "properties": {"norad_id": 66659, "name": "JACK K", "group": "last-30-days", "lat": -37.58584538167857, "lon": 85.1529658826349, "alt_km": 593.2308068224074, "timestamp": "2025-12-09T21:34:10.196989+00:00", "meta": {"OBJECT_NAME": "JACK K", "OBJECT_ID": "2025-274K", "EPOCH": "2025-12-09T14:09:36.881280", "MEAN_MOTION": 14.92780033, "ECCENTRICITY": 0.00122716, "INCLINATION": 97.7386, "RA_OF_ASC_NODE": 270.8575, "ARG_OF_PERICENTER": 292.2179, "MEAN_ANOMALY": 67.7739, "EPHEMERIS_TYPE": 0, "CLASSIFICATION_TYPE": "U", "NORAD_CAT_ID": 66659, "ELEMENT_SET_NO": 999, "REV_AT_EPOCH": 193, "BSTAR": 0.00043143897, "MEAN_MOTION_DOT": 4.41e-05, "MEAN_MOTION_DDOT": 0}, "tle": {"line1": "1 66659U 25274K   25343.59001020  .00004410  00000+0  43144-3 0  9993", "line2": "2 66659  97.7386 270.8575 0012271 292.2179  67.7739 14.92780033  1932"}}, "geometry": {"type": "Point", "coordinates": [85.1529658826349, -37.58584538167857]}}, {"type": "Feature", "properties": {"norad_id": 66660, "name": "K-HERO", "group": "last-30-days", "lat": -44.57606328632009, "lon": 83.46402012722564, "alt_km": 592.000225735721, "timestamp": "2025-12-09T21:34:10.196999+00:00", "meta": {"OBJECT_NAME": "K-HERO", "OBJECT_ID": "2025-274L", "EPOCH": "2025-12-09T07:41:41.618976", "MEAN_MOTION": 14.92929512, "ECCENTRICITY": 0.00128916, "INCLINATION": 97.7391, "RA_OF_ASC_NODE": 270.596, "ARG_OF_PERICENTER": 293.8465, "MEAN_ANOMALY": 66.1402, "EPHEMERIS_TYPE": 0, "CLASSIFICATION_TYPE": "U", "NORAD_CAT_ID": 66660, "ELEMENT_SET_NO": 999, "REV_AT_EPOCH": 189, "BSTAR": 0.00045811345, "MEAN_MOTION_DOT": 4.705e-05, "MEAN_MOTION_DDOT": 0}, "tle": {"line1": "1 66660U 25274L   25343.32062059  .00004705  00000+0  45811-3 0  9995", "line2": "2 66660  97.7391 270.5960 0012891 293.8465  66.1402 14.92929512  1890"}}, "geometry": {"type": "Point", "coordinates": [83.46402012722564, -44.57606328632009]}}, {"type": "Feature", "properties": {"norad_id": 66661, "name": "SNUGLITE-III", "group": "last-30-days", "lat": -51.587492399976, "lon": 81.29236975874984, "alt_km": 590.700095699116, "timestamp": "2025-12-09T21:34:10.197009+00:00", "meta": {"OBJECT_NAME": "SNUGLITE-III", "OBJECT_ID": "2025-274M", "EPOCH": "2025-12-09T12:29:21.816096", "MEAN_MOTION": 14.9307221, "ECCENTRICITY": 0.00135441, "INCLINATION": 97.7389, "RA_OF_ASC_NODE": 270.7952, "ARG_OF_PERICENTER": 294.1543, "MEAN_ANOMALY": 65.826, "EPHEMERIS_TYPE": 0, "CLASSIFICATION_TYPE": "U", "NORAD_CAT_ID": 66661, "ELEMENT_SET_NO": 999, "REV_AT_EPOCH": 192, "BSTAR": 0.00033345689, "MEAN_MOTION_DOT": 3.422e-05, "MEAN_MOTION_DDOT": 0}, "tle": {"line1": "1 66661U 25274M   25343.52039139  .00003422  00000+0  33346-3 0  9996", "line2": "2 66661  97.7389 270.7952 0013544 294.1543  65.8260 14.93072210  1925"}}, "geometry": {"type": "Point", "coordinates": [81.29236975874984, -51.587492399976]}}, {"type": "Feature", "properties": {"norad_id": 66662, "name": "2025-274N", "group": "last-30-days", "lat": -54.35590123538967, "lon": 80.23672025986461, "alt_km": 590.0145293427368, "timestamp": "2025-12-09T21:34:10.197019+00:00", "meta": {"OBJECT_NAME": "2025-274N", "OBJECT_ID": "2025-274N", "EPOCH": "2025-12-09T07:39:06.696864", "MEAN_MOTION": 14.93119374, "ECCENTRICITY": 0.0013906, "INCLINATION": 97.7389, "RA_OF_ASC_NODE": 270.598, "ARG_OF_PERICENTER": 294.3348, "MEAN_ANOMALY": 65.6419, "EPHEMERIS_TYPE": 0, "CLASSIFICATION_TYPE": "U", "NORAD_CAT_ID": 66662, "ELEMENT_SET_NO": 999, "REV_AT_EPOCH": 189, "BSTAR": 0.00030732, "MEAN_MOTION_DOT": 3.153e-05, "MEAN_MOTION_DDOT": 0}, "tle": {"line1": "1 66662U 25274N   25343.31882751  .00003153  00000+0  30732-3 0  9997", "line2": "2 66662  97.7389 270.5980 0013906 294.3348  65.6419 14.93119374  1895"}}, "geometry": {"type": "Point", "coordinates": [80.23672025986461, -54.35590123538967]}}, {"type": "Feature", "properties": {"norad_id": 66663, "name": "KSLV-II R/B", "group": "last-30-days", "lat": 73.98703240968976, "lon": -117.02383479555452, "alt_km": 578.0873259554874, "timestamp": "2025-12-09T21:34:10.197032+00:00", "meta": {"OBJECT_NAME": "KSLV-II R/B", "OBJECT_ID": "2025-274P", "EPOCH": "2025-12-09T08:24:04.565376", "MEAN_MOTION": 14.97241242, "ECCENTRICITY": 0.00501615, "INCLINATION": 97.7404, "RA_OF_ASC_NODE": 270.7232, "ARG_OF_PERICENTER": 331.3188, "MEAN_ANOMALY": 28.5276, "EPHEMERIS_TYPE": 0, "CLASSIFICATION_TYPE": "U", "NORAD_CAT_ID": 66663, "ELEMENT_SET_NO": 999, "REV_AT_EPOCH": 190, "BSTAR": 0.00033078132, "MEAN_MOTION_DOT": 3.867e-05, "MEAN_MOTION_DDOT": 0}, "tle": {"line1": "1 66663U 25274P   25343.35005284  .00003867  00000+0  33078-3 0  9998", "line2": "2 66663  97.7404 270.7232 0050161 331.3188  28.5276 14.97241242  1909"}}, "geometry": {"type": "Point", "coordinates": [-117.02383479555452, 73.98703240968976]}}, {"type": "Feature", "properties": {"norad_id": 66664, "name": "SOYUZ-MS 28", "group": "last-30-days", "lat": 8.309607790460948, "lon": 163.19113030869227, "alt_km": 419.80333140291077, "timestamp": "2025-12-09T21:34:10.197043+00:00", "meta": {"OBJECT_NAME": "SOYUZ-MS 28", "OBJECT_ID": "2025-275A", "EPOCH": "2025-12-09T12:14:10.839552", "MEAN_MOTION": 15.49447168, "ECCENTRICITY": 0.00034, "INCLINATION": 51.631, "RA_OF_ASC_NODE": 158.4724, "ARG_OF_PERICENTER": 223.8185, "MEAN_ANOMALY": 136.2534, "EPHEMERIS_TYPE": 0, "CLASSIFICATION_TYPE": "U", "NORAD_CAT_ID": 66664, "ELEMENT_SET_NO": 999, "REV_AT_EPOCH": 128, "BSTAR": 0.00026025969, "MEAN_MOTION_DOT": 0.00014141, "MEAN_MOTION_DDOT": 0}, "tle": {"line1": "1 66664U 25275A   25343.50984768  .00014141  00000+0  26026-3 0  9992", "line2": "2 66664  51.6310 158.4724 0003400 223.8185 136.2534 15.49447168  1287"}}, "geometry": {"type": "Point", "coordinates": [163.19113030869227, 8.309607790460948]}}, {"type": "Feature", "properties": {"norad_id": 66820, "name": "KOMPSAT-7", "group": "last-30-days", "lat": 33.71621387147715, "lon": 114.96148743592589, "alt_km": 569.2351859583259, "timestamp": "2025-12-09T21:34:10.197053+00:00", "meta": {"OBJECT_NAME": "KOMPSAT-7", "OBJECT_ID": "2025-279A", "EPOCH": "2025-12-09T14:30:32.266368", "MEAN_MOTION": 14.98378319, "ECCENTRICITY": 0.00094634, "INCLINATION": 97.6403, "RA_OF_ASC_NODE": 289.534, "ARG_OF_PERICENTER": 231.7406, "MEAN_ANOMALY": 128.2966, "EPHEMERIS_TYPE": 0, "CLASSIFICATION_TYPE": "U", "NORAD_CAT_ID": 66820, "ELEMENT_SET_NO": 999, "REV_AT_EPOCH": 118, "BSTAR": 0.00038973743, "MEAN_MOTION_DOT": 4.593e-05, "MEAN_MOTION_DDOT": 0}, "tle": {"line1": "1 66820U 25279A   25343.60454012  .00004593  00000+0  38974-3 0  9990", "line2": "2 66820  97.6403 289.5340 0009463 231.7406 128.2966 14.98378319  1186"}}, "geometry": {"type": "Point", "coordinates": [114.96148743592589, 33.71621387147715]}}, {"type": "Feature", "properties": {"norad_id": 66877, "name": "ZQ-3 R/B", "group": "last-30-days", "lat": -4.638381101224828, "lon": -108.48186804391777, "alt_km": 210.51593132725702, "timestamp": "2025-12-09T21:34:10.197069+00:00", "meta": {"OBJECT_NAME": "ZQ-3 R/B", "OBJECT_ID": "2025-282A", "EPOCH": "2025-12-09T14:03:36.956160", "MEAN_MOTION": 14.50884243, "ECCENTRICITY": 0.08147892, "INCLINATION": 56.9538, "RA_OF_ASC_NODE": 69.6744, "ARG_OF_PERICENTER": 214.5064, "MEAN_ANOMALY": 140.0407, "EPHEMERIS_TYPE": 0, "CLASSIFICATION_TYPE": "U", "NORAD_CAT_ID": 66877, "ELEMENT_SET_NO": 999, "REV_AT_EPOCH": 93, "BSTAR": 0.00027721727, "MEAN_MOTION_DOT": 0.01312735, "MEAN_MOTION_DDOT": 7.332797e-06}, "tle": {"line1": "1 66877U 25282A   25343.58584440  .01312735  73328-5  27722-3 0  9991", "line2": "2 66877  56.9538  69.6744 0814789 214.5064 140.0407 14.50884243   934"}}, "geometry": {"type": "Point", "coordinates": [-108.48186804391777, -4.638381101224828]}}, {"type": "Feature", "properties": {"norad_id": 66906, "name": "1998-067XS", "group": "last-30-days", "lat": 23.352922073849015, "lon": 176.50910670281468, "alt_km": 415.5307519101052, "timestamp": "2025-12-09T21:34:10.197080+00:00", "meta": {"OBJECT_NAME": "1998-067XS", "OBJECT_ID": "1998-067XS", "EPOCH": "2025-12-09T12:09:24.113376", "MEAN_MOTION": 15.50312686, "ECCENTRICITY": 0.00039811, "INCLINATION": 51.63, "RA_OF_ASC_NODE": 158.4502, "ARG_OF_PERICENTER": 188.2752, "MEAN_ANOMALY": 171.8172, "EPHEMERIS_TYPE": 0, "CLASSIFICATION_TYPE": "U", "NORAD_CAT_ID": 66906, "ELEMENT_SET_NO": 999, "REV_AT_EPOCH": 111, "BSTAR": 0.00059211588, "MEAN_MOTION_DOT": 0.00033864, "MEAN_MOTION_DDOT": 0}, "tle": {"line1": "1 66906U 98067XS  25343.50652909  .00033864  00000+0  59212-3 0  9995", "line2": "2 66906  51.6300 158.4502 0003981 188.2752 171.8172 15.50312686  1110"}}, "geometry": {"type": "Point", "coordinates": [176.50910670281468, 23.352922073849015]}}]}